OBJECT_NAME,OBJECT_ID,EPOCH,MEAN_MOTION,ECCENTRICITY,INCLINATION,RA_OF_ASC_NODE,ARG_OF_PERICENTER,MEAN_ANOMALY,EPHEMERIS_TYPE,CLASSIFICATION_TYPE,NORAD_CAT_ID,ELEMENT_SET_NO,REV_AT_EPOCH,BSTAR,MEAN_MOTION_DOT,MEAN_MOTION_DDOT
STARLINK-1456,2020-035S,2026-05-16T07:39:40.665024,15.61883480,.00069522,53.0427,78.8590,68.4773,291.6981,0,U,45673,999,32955,.83829124E-3,.74427E-3,0
STARLINK-1457,2020-035T,2026-05-16T15:18:36.591264,16.18047625,.00062242,53.0327,35.1153,244.5099,115.5295,0,U,45674,999,33015,.69535607E-3,.1167002E-1,.10238961E-2
STARLINK-1458,2020-035U,2026-05-16T14:20:20.185440,15.53004531,.00058603,53.0476,90.6208,25.6748,334.4551,0,U,45675,999,32937,.95180788E-3,.60433E-3,0
STARLINK-1460,2020-035V,2026-05-16T14:53:23.582112,15.33010825,.00042835,53.1555,109.0147,65.8648,294.2801,0,U,45676,999,32912,.84802139E-3,.27154E-3,0
STARLINK-1392,2020-035W,2026-05-16T14:52:12.705600,15.36148875,.00034208,53.1519,108.1677,70.5125,289.6247,0,U,45677,999,32917,.84061769E-3,.29773E-3,0
STARLINK-1394,2020-035Y,2026-05-16T06:05:23.085024,15.61742667,.00077317,53.0417,69.4142,70.6068,289.5780,0,U,45679,999,32967,.11327986E-2,.10056E-2,0
STARLINK-1402,2020-035AE,2026-05-16T11:29:15.540576,15.55037474,.00074635,53.0417,57.9791,94.2289,265.9574,0,U,45685,999,32986,.60892994E-3,.41395E-3,0
STARLINK-1404,2020-035AF,2026-05-16T13:41:04.479936,15.41947353,.00051212,53.1564,90.9860,81.1034,279.0551,0,U,45686,999,32941,.84280785E-3,.36189E-3,0
STARLINK-1413,2020-035AJ,2026-05-16T14:15:06.691680,15.33028498,.00035869,53.1570,93.7775,84.7644,275.3767,0,U,45689,999,32929,.12075888E-2,.38905E-3,0
STARLINK-1417,2020-035AN,2026-05-16T04:28:02.901216,15.15668726,.00060552,53.0478,107.5992,66.4832,293.6797,0,U,45693,999,32912,.12060959E-2,.22997E-3,0
STARLINK-1420,2020-035AQ,2026-05-16T06:01:21.635040,15.65698245,.00066318,53.0467,53.1338,67.4722,292.6994,0,U,45695,999,32990,.49166298E-3,.50383E-3,0
STARLINK-1422,2020-035AR,2026-05-16T14:20:09.526272,15.33090684,.0003523,53.1568,93.7194,78.9529,281.1869,0,U,45696,999,32937,.99990231E-3,.32184E-3,0
STARLINK-1351,2020-035AS,2026-05-16T01:22:45.617952,15.64002625,.00062149,53.0447,54.2531,76.0121,284.1584,0,U,45697,999,32987,.10439133E-2,.101179E-2,0
STARLINK-1400,2020-035AV,2026-05-16T11:49:51.966912,15.61566724,.0005115,53.0444,54.3869,37.6999,322.4372,0,U,45700,999,32990,.63508801E-3,.55408E-3,0
STARLINK-1403,2020-035AW,2026-05-16T06:27:17.662752,15.32070056,.00029964,53.1551,82.6328,89.9026,270.2319,0,U,45701,999,32949,.11625845E-2,.3631E-3,0
STARLINK-1407,2020-035AY,2026-05-16T06:54:31.565376,15.70272896,.00028041,53.0293,343.4330,359.8656,0.2359,0,U,45703,999,33088,.476194E-3,.58897E-3,0
STARLINK-1411,2020-035BB,2026-05-16T08:15:42.318720,15.80104691,.00017996,53.0353,6.6650,176.1905,183.9130,0,U,45706,999,33055,.11359856E-2,.221431E-2,0
STARLINK-1423,2020-035BF,2026-05-16T11:40:36.344928,15.66632539,.00074908,53.0445,51.5751,39.9824,320.1741,0,U,45710,999,32993,.46950416E-3,.49956E-3,0
STARLINK-1433,2020-035BG,2026-05-16T14:14:46.042080,15.66245277,.0007547,53.0448,49.5798,45.6608,314.5024,0,U,45711,999,32997,.4377482E-3,.45789E-3,0
STARLINK-1434,2020-035BH,2026-05-16T12:17:05.823744,15.32498240,.00038724,53.0510,64.3958,45.1290,315.0024,0,U,45712,999,32977,.63721056E-3,.19963E-3,0
STARLINK-1465,2020-038B,2026-05-16T15:00:15.951168,15.60536532,.00013175,53.0450,254.4876,271.2000,88.8861,0,U,45731,999,32695,.50813627E-3,.42403E-3,0
STARLINK-1471,2020-038F,2026-05-16T13:47:11.563296,15.52375765,.00029154,53.0435,175.8797,60.5528,299.5771,0,U,45735,999,32806,.33910611E-3,.20628E-3,0
STARLINK-1480,2020-038M,2026-05-16T14:31:30.390240,15.62121689,.00051008,53.0490,248.2283,316.9209,43.1404,0,U,45741,999,32705,.53685945E-3,.47735E-3,0
STARLINK-1500,2020-038Q,2026-05-15T23:55:16.059360,15.38130343,.00023297,53.0361,236.1588,95.5332,264.5936,0,U,45744,999,32716,.44648675E-3,.16655E-3,0
STARLINK-1504,2020-038S,2026-05-16T08:15:05.020704,15.57535586,.00033572,53.0194,174.6532,37.6197,322.5049,0,U,45746,999,32804,.3613056E-3,.26689E-3,0
STARLINK-1506,2020-038T,2026-05-16T14:13:24.032064,15.27919688,.00036657,53.0746,247.8219,108.6400,251.4997,0,U,45747,999,32706,.22887153E-3,.5974E-4,0
STARLINK-1464,2020-038X,2026-05-16T06:53:27.182688,15.52525123,.00024926,53.0461,241.1547,329.7629,30.3236,0,U,45751,999,32712,.10078476E-2,.62904E-3,0
STARLINK-1477,2020-038AA,2026-05-16T01:41:02.186880,15.17853679,.00012185,53.0478,265.8728,173.6751,186.4258,0,U,45754,999,32675,.11437516E-2,.23202E-3,0
STARLINK-1478,2020-038AB,2026-05-16T10:30:34.690464,15.65816730,.00030406,53.0459,227.4093,354.5933,5.5048,0,U,45755,999,32731,.46742508E-3,.4805E-3,0
STARLINK-1493,2020-038AF,2026-05-16T14:22:04.204128,15.61504482,.00056944,53.0479,235.6894,308.0370,52.0128,0,U,45759,999,32721,.66632956E-3,.58046E-3,0
