STARLINK-1456           
1 45673U 20035S   26136.31922066  .00074427  00000+0  83829-3 0  9998
2 45673  53.0427  78.8590 0006952  68.4773 291.6981 15.61883480329556
STARLINK-1457           
1 45674U 20035T   26136.63792351  .01167002  10239-2  69536-3 0  9996
2 45674  53.0327  35.1153 0006224 244.5099 115.5295 16.18047625330153
STARLINK-1458           
1 45675U 20035U   26136.59745585  .00060433  00000+0  95181-3 0  9995
2 45675  53.0476  90.6208 0005860  25.6748 334.4551 15.53004531329376
STARLINK-1460           
1 45676U 20035V   26136.62041183  .00027154  00000+0  84802-3 0  9994
2 45676  53.1555 109.0147 0004283  65.8648 294.2801 15.33010825329121
STARLINK-1392           
1 45677U 20035W   26136.61959150  .00029773  00000+0  84062-3 0  9993
2 45677  53.1519 108.1677 0003420  70.5125 289.6247 15.36148875329172
STARLINK-1394           
1 45679U 20035Y   26136.25373941  .00100560  00000+0  11328-2 0  9991
2 45679  53.0417  69.4142 0007731  70.6068 289.5780 15.61742667329675
STARLINK-1402           
1 45685U 20035AE  26136.47865208  .00041395  00000+0  60893-3 0  9996
2 45685  53.0417  57.9791 0007464  94.2289 265.9574 15.55037474329860
STARLINK-1404           
1 45686U 20035AF  26136.57019074  .00036189  00000+0  84281-3 0  9992
2 45686  53.1564  90.9860 0005121  81.1034 279.0551 15.41947353329413
STARLINK-1413           
1 45689U 20035AJ  26136.59382745  .00038905  00000+0  12076-2 0  9995
2 45689  53.1570  93.7775 0003586  84.7644 275.3767 15.33028498329293
STARLINK-1417           
1 45693U 20035AN  26136.18614469  .00022997  00000+0  12061-2 0  9994
2 45693  53.0478 107.5992 0006055  66.4832 293.6797 15.15668726329121
STARLINK-1420           
1 45695U 20035AQ  26136.25094485  .00050383  00000+0  49166-3 0  9991
2 45695  53.0467  53.1338 0006631  67.4722 292.6994 15.65698245329908
STARLINK-1422           
1 45696U 20035AR  26136.59733248  .00032184  00000+0  99990-3 0  9995
2 45696  53.1568  93.7194 0003523  78.9529 281.1869 15.33090684329374
STARLINK-1351           
1 45697U 20035AS  26136.05747243  .00101179  00000+0  10439-2 0  9998
2 45697  53.0447  54.2531 0006214  76.0121 284.1584 15.64002625329878
STARLINK-1400           
1 45700U 20035AV  26136.49296257  .00055408  00000+0  63509-3 0  9995
2 45700  53.0444  54.3869 0005115  37.6999 322.4372 15.61566724329907
STARLINK-1403           
1 45701U 20035AW  26136.26895443  .00036310  00000+0  11626-2 0  9996
2 45701  53.1551  82.6328 0002996  89.9026 270.2319 15.32070056329498
STARLINK-1407           
1 45703U 20035AY  26136.28786534  .00058897  00000+0  47619-3 0  9996
2 45703  53.0293 343.4330 0002804 359.8656   0.2359 15.70272896330887
STARLINK-1411           
1 45706U 20035BB  26136.34423980  .00221431  00000+0  11360-2 0  9998
2 45706  53.0353   6.6650 0001799 176.1905 183.9130 15.80104691330557
STARLINK-1423           
1 45710U 20035BF  26136.48653176  .00049956  00000+0  46950-3 0  9994
2 45710  53.0445  51.5751 0007491  39.9824 320.1741 15.66632539329930
STARLINK-1433           
1 45711U 20035BG  26136.59358845  .00045789  00000+0  43775-3 0  9994
2 45711  53.0448  49.5798 0007547  45.6608 314.5024 15.66245277329972
STARLINK-1434           
1 45712U 20035BH  26136.51187295  .00019963  00000+0  63721-3 0  9994
2 45712  53.0510  64.3958 0003872  45.1290 315.0024 15.32498240329772
STARLINK-1465           
1 45731U 20038B   26136.62518462  .00042403  00000+0  50814-3 0  9998
2 45731  53.0450 254.4876 0001317 271.2000  88.8861 15.60536532326959
STARLINK-1471           
1 45735U 20038F   26136.57443939  .00020628  00000+0  33911-3 0  9996
2 45735  53.0435 175.8797 0002915  60.5528 299.5771 15.52375765328068
STARLINK-1480           
1 45741U 20038M   26136.60521285  .00047735  00000+0  53686-3 0  9997
2 45741  53.0490 248.2283 0005100 316.9209  43.1404 15.62121689327053
STARLINK-1500           
1 45744U 20038Q   26135.99671365  .00016655  00000+0  44649-3 0  9992
2 45744  53.0361 236.1588 0002329  95.5332 264.5936 15.38130343327165
STARLINK-1504           
1 45746U 20038S   26136.34380811  .00026689  00000+0  36131-3 0  9992
2 45746  53.0194 174.6532 0003357  37.6197 322.5049 15.57535586328041
STARLINK-1506           
1 45747U 20038T   26136.59263926  .00005974  00000+0  22887-3 0  9994
2 45747  53.0746 247.8219 0003665 108.6400 251.4997 15.27919688327067
STARLINK-1464           
1 45751U 20038X   26136.28712017  .00062904  00000+0  10078-2 0  9999
2 45751  53.0461 241.1547 0002492 329.7629  30.3236 15.52525123327125
STARLINK-1477           
1 45754U 20038AA  26136.07016420  .00023202  00000+0  11438-2 0  9993
2 45754  53.0478 265.8728 0001218 173.6751 186.4258 15.17853679326753
STARLINK-1478           
1 45755U 20038AB  26136.43790150  .00048050  00000+0  46743-3 0  9999
2 45755  53.0459 227.4093 0003041 354.5933   5.5048 15.65816730327311
STARLINK-1493           
1 45759U 20038AF  26136.59865977  .00058046  00000+0  66633-3 0  9996
2 45759  53.0479 235.6894 0005694 308.0370  52.0128 15.61504482327211
